NORAD_CAT_ID,OBJECT_NAME,OBJECT_TYPE,EPOCH,MEAN_MOTION,ECCENTRICITY,INCLINATION,RA_OF_ASC_NODE,ARG_OF_PERICENTER,MEAN_ANOMALY,BSTAR,MEAN_MOTION_DOT,MEAN_MOTION_DDOT,TLE_LINE0,TLE_LINE1,TLE_LINE2,SEMIMAJOR_AXIS,PERIOD,APOGEE,PERIGEE,DECAYED
56808.0,STARLINK-6042,PAYLOAD,2024-07-27 17:50:20,15.17929332,0.00031,69.9975,334.8883,263.0292,97.0525,-6.438e-05,-1.422e-05,0.0,0 STARLINK-6042,1 56808U 23078AT  24209.74329801 -.00001422  00000-0 -64380-4 0  9994,2 56808  69.9975 334.8883 0003100 263.0292  97.0525 15.17929332 65729,6890.237,94.866,514.238,509.966,0.0
56808.0,STARLINK-6042,PAYLOAD,2024-07-28 01:44:48,15.17940971,0.0003365,69.9996,334.0336,270.7241,89.3542,-4.4329e-05,-1.015e-05,0.0,0 STARLINK-6042,1 56808U 23078AT  24210.07277986 -.00001015  00000-0 -44329-4 0  9997,2 56808  69.9996 334.0336 0003365 270.7241  89.3542 15.17940971 66039,6890.201,94.865,514.385,509.748,0.0
56808.0,STARLINK-6042,PAYLOAD,2024-07-28 17:33:42,15.17952345,0.0003298,70.0004,332.3235,271.0093,89.0698,5.4512e-05,9.97e-06,0.0,0 STARLINK-6042,1 56808U 23078AT  24210.73174626  .00000997  00000-0  54512-4 0  9998,2 56808  70.0004 332.3235 0003298 271.0093  89.0698 15.17952345 66133,6890.167,94.865,514.304,509.76,0.0
56808.0,STARLINK-6042,PAYLOAD,2024-07-29 09:22:40,15.17928479,0.0003386,69.9995,330.6089,268.9956,91.0825,-2.9365e-05,-7.1e-06,0.0,0 STARLINK-6042,1 56808U 23078AT  24211.39074359 -.00000710  00000-0 -29365-4 0  9996,2 56808  69.9995 330.6089 0003386 268.9956  91.0825 15.17928479 66235,6890.239,94.866,514.437,509.771,0.0
56808.0,STARLINK-6042,PAYLOAD,2024-07-29 14:07:20,15.17939614,0.0003427,69.9996,330.0955,268.1849,91.8928,4.1651e-05,7.35e-06,0.0,0 STARLINK-6042,1 56808U 23078AT  24211.58842779  .00000735  00000-0  41651-4 0  9993,2 56808  69.9996 330.0955 0003427 268.1849  91.8928 15.17939614 66001,6890.206,94.865,514.432,509.709,0.0
56808.0,STARLINK-6042,PAYLOAD,2024-07-29 18:52:00,15.17940993,0.0003156,69.9993,329.5802,265.8317,94.2492,4.5688e-05,8.17e-06,0.0,0 STARLINK-6042,1 56808U 23078AT  24211.78612009  .00000817  00000-0  45688-4 0  9991,2 56808  69.9993 329.5802 0003156 265.8317  94.2492 15.17940993 66291,6890.201,94.865,514.241,509.892,0.0
56808.0,STARLINK-6042,PAYLOAD,2024-07-30 01:11:35,15.17934225,0.0002867,70.0003,328.8979,276.0315,84.0527,-2.3609e-05,-5.93e-06,0.0,0 STARLINK-6042,1 56808U 23078AT  24212.04972048 -.00000593  00000-0 -23609-4 0  9995,2 56808  70.0003 328.8979 0002867 276.0315  84.0527 15.17934225 66335,6890.222,94.866,514.062,510.111,0.0
56808.0,STARLINK-6042,PAYLOAD,2024-07-30 13:50:43,15.17944687,0.0003362,69.9996,327.5257,269.9462,90.1322,2.8773e-05,4.73e-06,0.0,0 STARLINK-6042,1 56808U 23078AT  24212.57689370  .00000473  00000-0  28773-4 0  9998,2 56808  69.9996 327.5257 0003362 269.9462  90.1322 15.17944687 66157,6890.19,94.865,514.372,509.739,0.0
56808.0,STARLINK-6042,PAYLOAD,2024-07-31 00:54:58,15.17957298,0.0003559,69.9984,326.3267,270.1148,89.9614,-6.4844e-05,-1.433e-05,0.0,0 STARLINK-6042,1 56808U 23078AT  24213.03817141 -.00001433  00000-0 -64844-4 0  9997,2 56808  69.9984 326.3267 0003559 270.1148  89.9614 15.17957298 66483,6890.152,94.864,514.469,509.565,0.0
56808.0,STARLINK-6042,PAYLOAD,2024-07-31 13:34:08,15.17924064,0.0003298,69.9991,324.957,266.0645,94.0147,-3.4093e-05,-8.06e-06,0.0,0 STARLINK-6042,1 56808U 23078AT  24213.56537811 -.00000806  00000-0 -34093-4 0  9994,2 56808  69.9991 324.9570 0003298 266.0645  94.0147 15.17924064 66560,6890.253,94.866,514.39,509.845,0.0
56808.0,STARLINK-6042,PAYLOAD,2024-07-31 16:43:55,15.17936775,0.0003158,70.0,324.6143,265.2473,94.8335,-3.0305e-05,-7.29e-06,0.0,0 STARLINK-6042,1 56808U 23078AT  24213.69716657 -.00000729  00000-0 -30305-4 0  9991,2 56808  70.0000 324.6143 0003158 265.2473  94.8335 15.17936775 66583,6890.214,94.866,514.255,509.903,0.0
56808.0,STARLINK-6042,PAYLOAD,2024-08-01 13:17:30,15.1795377,0.0003189,69.999,322.3885,270.7915,89.2889,0.00014448,2.829e-05,0.0,0 STARLINK-6042,1 56808U 23078AT  24214.55382289  .00002829  00000-0  14448-3 0  9997,2 56808  69.9990 322.3885 0003189 270.7915  89.2889 15.17953770 66454,6890.163,94.865,514.225,509.83,0.0
56808.0,STARLINK-6042,PAYLOAD,2024-08-01 18:02:10,15.17964205,0.000309,69.998,321.8717,263.9908,96.0909,9.557e-05,1.834e-05,0.0,0 STARLINK-6042,1 56808U 23078AT  24214.75150780  .00001834  00000-0  95570-4 0  9999,2 56808  69.9980 321.8717 0003090 263.9908  96.0909 15.17964205 66744,6890.131,94.864,514.125,509.867,0.0
56808.0,STARLINK-6042,PAYLOAD,2024-08-02 00:21:46,15.17948204,0.0001228,69.9997,321.1877,311.3783,48.7281,-4.6754e-05,-1.064e-05,0.0,0 STARLINK-6042,1 56808U 23078AT  24215.01512289 -.00001064  00000-0 -46754-4 0  9992,2 56808  69.9997 321.1877 0001228 311.3783  48.7281 15.17948204 66784,6890.18,94.865,512.891,511.198,0.0
56808.0,STARLINK-6042,PAYLOAD,2024-08-02 14:35:48,15.17933816,0.0002819,70.0007,319.6503,271.1913,88.8933,9.3091e-05,1.782e-05,0.0,0 STARLINK-6042,1 56808U 23078AT  24215.60819879  .00001782  00000-0  93091-4 0  9993,2 56808  70.0007 319.6503 0002819 271.1913  88.8933 15.17933816 66616,6890.223,94.866,514.03,510.146,0.0
56808.0,STARLINK-6042,PAYLOAD,2024-08-02 16:10:41,15.17939684,0.000303,69.999,319.4748,266.3232,93.759,9.0742e-05,1.734e-05,0.0,0 STARLINK-6042,1 56808U 23078AT  24215.67409212  .00001734  00000-0  90742-4 0  9993,2 56808  69.9990 319.4748 0003030 266.3232  93.7590 15.17939684 66623,6890.205,94.865,514.158,509.983,0.0
56808.0,STARLINK-6042,PAYLOAD,2024-08-03 12:44:20,15.17924401,0.0003003,69.9997,317.2514,269.7154,90.3671,-0.00016564,-3.48e-05,0.0,0 STARLINK-6042,1 56808U 23078AT  24216.53078770 -.00003480  00000-0 -16564-3 0  9991,2 56808  69.9997 317.2514 0003003 269.7154  90.3671 15.17924401 67015,6890.252,94.866,514.186,510.047,0.0
56808.0,STARLINK-6042,PAYLOAD,2024-08-03 14:19:13,15.17931721,0.0002981,69.9988,317.0791,269.3544,90.7284,-0.00021422,-4.468e-05,0.0,0 STARLINK-6042,1 56808U 23078AT  24216.59668352 -.00004468  00000-0 -21422-3 0  9994,2 56808  69.9988 317.0791 0002981 269.3544  90.7284 15.17931721 66761,6890.229,94.866,514.148,510.04,0.0
56808.0,STARLINK-6042,PAYLOAD,2024-08-03 15:54:06,15.17933005,0.0003045,69.9988,316.9076,269.8814,90.2006,-0.00019759,-4.13e-05,0.0,0 STARLINK-6042,1 56808U 23078AT  24216.66257999 -.00004130  00000-0 -19759-3 0  9999,2 56808  69.9988 316.9076 0003045 269.8814  90.2006 15.17933005 67037,6890.226,94.866,514.189,509.992,0.0
56808.0,STARLINK-6042,PAYLOAD,2024-08-04 10:52:49,15.17928544,0.0003293,70.001,314.8507,271.6944,88.3848,0.00010229,1.969e-05,0.0,0 STARLINK-6042,1 56808U 23078AT  24217.45334491  .00001969  00000-0  10229-3 0  9998,2 56808  70.0010 314.8507 0003293 271.6944  88.3848 15.17928544 67159,6890.239,94.866,514.373,509.835,0.0
56808.0,STARLINK-6042,PAYLOAD,2024-08-04 14:02:35,15.17938094,0.0002212,70.0021,314.5139,262.4062,97.6856,6.5821e-05,1.227e-05,0.0,0 STARLINK-6042,1 56808U 23078AT  24217.58513781  .00001227  00000-0  65821-4 0  9999,2 56808  70.0021 314.5139 0002212 262.4062  97.6856 15.17938094 66914,6890.21,94.866,513.599,510.551,0.0
56808.0,STARLINK-6042,PAYLOAD,2024-08-04 15:37:28,15.17958302,0.0002822,69.9993,314.3391,258.5534,101.5318,0.00011935,2.318e-05,0.0,0 STARLINK-6042,1 56808U 23078AT  24217.65101858  .00002318  00000-0  11935-3 0  9993,2 56808  69.9993 314.3391 0002822 258.5534 101.5318 15.17958302 67186,6890.149,94.864,513.958,510.07,0.0
56808.0,STARLINK-6042,PAYLOAD,2024-08-05 07:26:23,15.17944581,0.000232,69.9997,312.6276,264.102,95.9885,0.00020242,4.009e-05,0.0,0 STARLINK-6042,1 56808U 23078AT  24218.30999774  .00004009  00000-0  20242-3 0  9998,2 56808  69.9997 312.6276 0002320 264.1020  95.9885 15.17944581 67289,6890.191,94.865,513.654,510.457,0.0
56808.0,STARLINK-6042,PAYLOAD,2024-08-05 15:20:56,15.17891568,0.0003134,69.9988,311.769,275.172,84.9091,-0.0001631,-3.425e-05,0.0,0 STARLINK-6042,1 56808U 23078AT  24218.63953905 -.00003425  00000-0 -16310-3 0  9994,2 56808  69.9988 311.7690 0003134 275.1720  84.9091 15.17891568 67331,6890.351,94.868,514.375,510.057,0.0
56808.0,STARLINK-6042,PAYLOAD,2024-08-06 05:34:57,15.17923657,0.0003405,69.9968,310.2242,275.5077,84.5703,-0.00020597,-4.3e-05,0.0,0 STARLINK-6042,1 56808U 23078AT  24219.23261253 -.00004300  00000-0 -20597-3 0  9994,2 56808  69.9968 310.2242 0003405 275.5077  84.5703 15.17923657 67427,6890.254,94.866,514.465,509.773,0.0
56808.0,STARLINK-6042,PAYLOAD,2024-08-06 10:19:37,15.17938977,0.0002574,70.0001,309.715,263.9263,96.1613,-7.8782e-05,-1.715e-05,0.0,0 STARLINK-6042,1 56808U 23078AT  24219.43029237 -.00001715  00000-0 -78782-4 0  9997,2 56808  70.0001 309.7150 0002574 263.9263  96.1613 15.17938977 67456,6890.207,94.865,513.846,510.299,0.0
56808.0,STARLINK-6042,PAYLOAD,2024-08-06 13:29:24,15.17942635,0.000224,70.0006,309.3728,258.2564,101.8353,-5.2729e-05,-1.185e-05,0.0,0 STARLINK-6042,1 56808U 23078AT  24219.56208481 -.00001185  00000-0 -52729-4 0  9995,2 56808  70.0006 309.3728 0002240 258.2564 101.8353 15.17942635 67214,6890.196,94.865,513.605,510.518,0.0
56808.0,STARLINK-6042,PAYLOAD,2024-08-07 10:02:59,15.17943774,0.0002656,70.0002,307.1462,261.5019,98.585,3.7291e-05,6.46e-06,0.0,0 STARLINK-6042,1 56808U 23078AT  24220.41874703  .00000646  00000-0  37291-4 0  9993,2 56808  70.0002 307.1462 0002656 261.5019  98.5850 15.17943774 67606,6890.193,94.865,513.888,510.228,0.0
56808.0,STARLINK-6042,PAYLOAD,2024-08-08 12:56:10,15.17947817,0.0002368,69.9996,304.2323,274.8116,85.2782,2.3515e-05,3.66e-06,0.0,0 STARLINK-6042,1 56808U 23078AT  24221.53901219  .00000366  00000-0  23515-4 0  9993,2 56808  69.9996 304.2323 0002368 274.8116  85.2782 15.17947817 67513,6890.181,94.865,513.677,510.414,0.0
56808.0,STARLINK-6042,PAYLOAD,2024-08-08 16:05:53,15.17995517,0.0002179,70.0005,303.892,266.6614,93.4306,0.00035199,7.068e-05,0.0,0 STARLINK-6042,1 56808U 23078AT  24221.67076138  .00007068  00000-0  35199-3 0  9997,2 56808  70.0005 303.8920 0002179 266.6614  93.4306 15.17995517 67790,6890.036,94.862,513.403,510.4,0.0
